NORAD_CAT_ID,OBJECT_NAME,OBJECT_TYPE,EPOCH,MEAN_MOTION,ECCENTRICITY,INCLINATION,RA_OF_ASC_NODE,ARG_OF_PERICENTER,MEAN_ANOMALY,BSTAR,MEAN_MOTION_DOT,MEAN_MOTION_DDOT,TLE_LINE0,TLE_LINE1,TLE_LINE2,SEMIMAJOR_AXIS,PERIOD,APOGEE,PERIGEE,DECAYED
55953.0,STARLINK-5889,PAYLOAD,2024-04-17 16:35:53,14.98335605,0.0002879,70.0023,206.8997,263.4666,96.6166,6.3321e-07,-8.5e-07,0.0,0 STARLINK-5889,1 55953U 23037AR  24108.69159217 -.00000085  00000-0  63321-6 0  9992,2 55953  70.0023 206.8997 0002879 263.4666  96.6166 14.98335605 60960,6950.176,96.107,574.042,570.04,0.0
55953.0,STARLINK-5889,PAYLOAD,2024-04-18 11:49:31,14.98320074,0.0002648,70.0032,204.8819,255.5944,104.4921,-4.8222e-05,-6.68e-06,0.0,0 STARLINK-5889,1 55953U 23037AR  24109.49272475 -.00000668  00000-0 -48222-4 0  9992,2 55953  70.0032 204.8819 0002648 255.5944 104.4921 14.98320074 61429,6950.224,96.108,573.929,570.248,0.0
55953.0,STARLINK-5889,PAYLOAD,2024-04-18 16:37:56,14.98317578,0.0003038,70.0026,204.3782,260.6139,99.4677,-0.00012173,-1.545e-05,0.0,0 STARLINK-5889,1 55953U 23037AR  24109.69300973 -.00001545  00000-0 -12173-3 0  9999,2 55953  70.0026 204.3782 0003038 260.6139  99.4677 14.98317578 61115,6950.231,96.108,574.208,569.985,0.0
55953.0,STARLINK-5889,PAYLOAD,2024-04-19 05:27:01,14.98312706,0.0002835,70.002,203.031,255.7287,104.3558,-0.00018421,-2.289e-05,0.0,0 STARLINK-5889,1 55953U 23037AR  24110.22709920 -.00002289  00000-0 -18421-3 0  9993,2 55953  70.0020 203.0310 0002835 255.7287 104.3558 14.98312706 61533,6950.246,96.108,574.082,570.141,0.0
55953.0,STARLINK-5889,PAYLOAD,2024-04-19 13:27:42,14.98311564,0.0002473,70.0026,202.1889,247.0519,113.0379,-0.00016007,-2.001e-05,0.0,0 STARLINK-5889,1 55953U 23037AR  24110.56090504 -.00002001  00000-0 -16007-3 0  9991,2 55953  70.0026 202.1889 0002473 247.0519 113.0379 14.98311564 61247,6950.25,96.108,573.834,570.396,0.0
55953.0,STARLINK-5889,PAYLOAD,2024-04-19 15:03:50,14.98311546,0.000282,70.0028,202.0244,230.6971,129.3939,-0.00015193,-1.904e-05,0.0,0 STARLINK-5889,1 55953U 23037AR  24110.62766576 -.00001904  00000-0 -15193-3 0  9993,2 55953  70.0028 202.0244 0002820 230.6971 129.3939 14.98311546 61252,6950.25,96.108,574.075,570.155,0.0
55953.0,STARLINK-5889,PAYLOAD,2024-04-20 11:53:32,14.98334339,0.00026,70.0022,199.8306,268.7418,91.3443,0.00031077,3.617e-05,0.0,0 STARLINK-5889,1 55953U 23037AR  24111.49551977  .00003617  00000-0  31077-3 0  9996,2 55953  70.0022 199.8306 0002600 268.7418  91.3443 14.98334339 61727,6950.179,96.107,573.852,570.237,0.0
55953.0,STARLINK-5889,PAYLOAD,2024-04-20 13:29:40,14.98336783,0.0002224,70.0034,199.6645,253.9216,106.1698,0.00035386,4.132e-05,0.0,0 STARLINK-5889,1 55953U 23037AR  24111.56227668  .00004132  00000-0  35386-3 0  9991,2 55953  70.0034 199.6645 0002224 253.9216 106.1698 14.98336783 61393,6950.172,96.107,573.583,570.491,0.0
55953.0,STARLINK-5889,PAYLOAD,2024-04-20 16:41:56,14.9834017,0.0002092,70.0042,199.3278,228.7918,131.3061,0.00038965,4.56e-05,0.0,0 STARLINK-5889,1 55953U 23037AR  24111.69579204  .00004560  00000-0  38965-3 0  9992,2 55953  70.0042 199.3278 0002092 228.7918 131.3061 14.98340170 61752,6950.161,96.106,573.48,570.572,0.0
55953.0,STARLINK-5889,PAYLOAD,2024-04-21 13:31:43,14.98303821,0.000298,70.001,197.1376,256.2021,103.8806,0.00027311,3.165e-05,0.0,0 STARLINK-5889,1 55953U 23037AR  24112.56370040  .00003165  00000-0  27311-3 0  9999,2 55953  70.0010 197.1376 0002980 256.2021 103.8806 14.98303821 61549,6950.274,96.109,574.21,570.068,0.0
55953.0,STARLINK-5889,PAYLOAD,2024-04-21 15:07:51,14.98307318,0.0002865,70.0016,196.97,262.344,97.7394,0.00019333,2.213e-05,0.0,0 STARLINK-5889,1 55953U 23037AR  24112.63046148  .00002213  00000-0  19333-3 0  9994,2 55953  70.0016 196.9700 0002865 262.3440  97.7394 14.98307318 61557,6950.263,96.108,574.119,570.137,0.0
55953.0,STARLINK-5889,PAYLOAD,2024-04-22 10:21:27,14.98344348,0.0002901,70.001,194.9476,265.6453,94.4375,-0.00011422,-1.456e-05,0.0,0 STARLINK-5889,1 55953U 23037AR  24113.43156280 -.00001456  00000-0 -11422-3 0  9993,2 55953  70.0010 194.9476 0002901 265.6453  94.4375 14.98344348 62019,6950.149,96.106,574.03,569.997,0.0
55953.0,STARLINK-5889,PAYLOAD,2024-04-22 15:09:50,14.98355104,0.0002538,70.0022,194.4459,243.8929,116.1969,-9.3902e-05,-1.214e-05,0.0,0 STARLINK-5889,1 55953U 23037AR  24113.63183165 -.00001214  00000-0 -93902-4 0  9993,2 55953  70.0022 194.4459 0002538 243.8929 116.1969 14.98355104 62046,6950.115,96.105,573.744,570.216,0.0
55953.0,STARLINK-5889,PAYLOAD,2024-04-23 05:35:03,14.98322711,0.0002094,70.0044,192.9315,217.5558,142.5455,0.00020699,2.377e-05,0.0,0 STARLINK-5889,1 55953U 23037AR  24114.23268057  .00002377  00000-0  20699-3 0  9995,2 55953  70.0044 192.9315 0002094 217.5558 142.5455 14.98322711 62138,6950.215,96.107,573.536,570.625,0.0
55953.0,STARLINK-5889,PAYLOAD,2024-04-23 11:59:36,14.98319047,0.00026,70.0022,192.2595,247.1763,112.9122,6.0052e-05,6.23e-06,0.0,0 STARLINK-5889,1 55953U 23037AR  24114.49972842  .00000623  00000-0  60052-4 0  9997,2 55953  70.0022 192.2595 0002600 247.1763 112.9122 14.98319047 62171,6950.227,96.108,573.899,570.285,0.0
55953.0,STARLINK-5889,PAYLOAD,2024-04-23 13:35:44,14.98315094,0.0002511,70.0028,192.0919,240.5424,119.5485,4.8515e-05,4.86e-06,0.0,0 STARLINK-5889,1 55953U 23037AR  24114.56649181  .00000486  00000-0  48515-4 0  9999,2 55953  70.0028 192.0919 0002511 240.5424 119.5485 14.98315094 61843,6950.239,96.108,573.849,570.359,0.0
55953.0,STARLINK-5889,PAYLOAD,2024-04-23 15:11:52,14.98317648,0.0002687,70.0018,191.9218,253.5852,106.5011,5.7393e-05,5.92e-06,0.0,0 STARLINK-5889,1 55953U 23037AR  24114.63325061  .00000592  00000-0  57393-4 0  9997,2 55953  70.0018 191.9218 0002687 253.5852 106.5011 14.98317648 61854,6950.231,96.108,573.964,570.229,0.0
55953.0,STARLINK-5889,PAYLOAD,2024-04-24 12:01:38,14.98355188,0.0002736,70.0025,189.7376,215.3526,144.7452,-0.00099394,-0.0001194,0.0,0 STARLINK-5889,1 55953U 23037AR  24115.50114265 -.00011940  00000-0 -99394-3 0  9993,2 55953  70.0025 189.7376 0002736 215.3526 144.7452 14.98355188 62328,6950.115,96.105,573.882,570.078,0.0
55953.0,STARLINK-5889,PAYLOAD,2024-04-24 13:37:46,14.9838135,0.0002827,70.0028,189.5705,214.5352,145.5624,-0.0013748,-0.0001648,0.0,0 STARLINK-5889,1 55953U 23037AR  24115.56789444 -.00016480  00000-0 -13748-2 0  9998,2 55953  70.0028 189.5705 0002827 214.5352 145.5624 14.98381350 61996,6950.034,96.104,573.864,569.934,0.0
55953.0,STARLINK-5889,PAYLOAD,2024-04-24 15:13:53,14.98392085,0.0002812,70.0027,189.4022,216.5621,143.5346,-0.0015422,-0.00018475,0.0,0 STARLINK-5889,1 55953U 23037AR  24115.63464980 -.00018475  00000-0 -15422-2 0  9998,2 55953  70.0027 189.4022 0002812 216.5621 143.5346 14.98392085 62347,6950.001,96.103,573.82,569.912,0.0
55953.0,STARLINK-5889,PAYLOAD,2024-04-25 13:39:45,14.9833634,0.0002412,70.0028,187.0407,252.2817,107.8079,0.00024118,2.786e-05,0.0,0 STARLINK-5889,1 55953U 23037AR  24116.56928172  .00002786  00000-0  24118-3 0  9998,2 55953  70.0028 187.0407 0002412 252.2817 107.8079 14.98336340 62482,6950.173,96.107,573.715,570.362,0.0
55953.0,STARLINK-5889,PAYLOAD,2024-04-25 15:15:53,14.98335969,0.0002482,70.0024,186.8707,263.1069,96.9807,0.00026823,3.109e-05,0.0,0 STARLINK-5889,1 55953U 23037AR  24116.63604163  .00003109  00000-0  26823-3 0  9992,2 55953  70.0024 186.8707 0002482 263.1069  96.9807 14.98335969 62152,6950.174,96.107,573.764,570.314,0.0
55953.0,STARLINK-5889,PAYLOAD,2024-04-26 04:04:58,14.98319056,0.0002476,70.0029,185.5241,259.0032,101.0849,0.00052662,6.194e-05,0.0,0 STARLINK-5889,1 55953U 23037AR  24117.17012138  .00006194  00000-0  52662-3 0  9994,2 55953  70.0029 185.5241 0002476 259.0032 101.0849 14.98319056 62572,6950.227,96.108,573.813,570.371,0.0
55953.0,STARLINK-5889,PAYLOAD,2024-04-26 13:41:46,14.98330583,0.0003007,70.0013,184.514,266.7312,93.3503,0.0003095,3.602e-05,0.0,0 STARLINK-5889,1 55953U 23037AR  24117.57068113  .00003602  00000-0  30950-3 0  9999,2 55953  70.0013 184.5140 0003007 266.7312  93.3503 14.98330583 62296,6950.191,96.107,574.146,569.966,0.0
55953.0,STARLINK-5889,PAYLOAD,2024-04-27 04:06:59,14.98344855,0.0002719,70.0021,183.0016,263.3873,96.6977,-8.7446e-05,-1.137e-05,0.0,0 STARLINK-5889,1 55953U 23037AR  24118.17151971 -.00001137  00000-0 -87446-4 0  9997,2 55953  70.0021 183.0016 0002719 263.3873  96.6977 14.98344855 62721,6950.147,96.106,573.902,570.122,0.0
55953.0,STARLINK-5889,PAYLOAD,2024-04-27 13:43:47,14.98347495,0.0003065,70.0008,181.9897,268.2968,91.784,-8.2765e-05,-1.081e-05,0.0,0 STARLINK-5889,1 55953U 23037AR  24118.57207267 -.00001081  00000-0 -82765-4 0  9998,2 55953  70.0008 181.9897 0003065 268.2968  91.7840 14.98347495 62441,6950.139,96.106,574.134,569.874,0.0
55953.0,STARLINK-5889,PAYLOAD,2024-04-27 21:44:27,14.98342017,0.0003264,70.0004,181.1466,274.8927,85.1859,-0.00021755,-2.689e-05,0.0,0 STARLINK-5889,1 55953U 23037AR  24118.90587635 -.00002689  00000-0 -21755-3 0  9991,2 55953  70.0004 181.1466 0003264 274.8927  85.1859 14.98342017 62497,6950.156,96.106,574.289,569.752,0.0
55953.0,STARLINK-5889,PAYLOAD,2024-04-28 04:09:02,14.98309394,0.0003396,70.0012,180.4761,273.7701,86.307,-0.00038894,-4.728e-05,0.0,0 STARLINK-5889,1 55953U 23037AR  24119.17294191 -.00004728  00000-0 -38894-3 0  9991,2 55953  70.0012 180.4761 0003396 273.7701  86.3070 14.98309394 62871,6950.257,96.108,574.482,569.761,0.0
55953.0,STARLINK-5889,PAYLOAD,2024-04-28 12:09:41,14.98317965,0.0003125,70.0006,179.6334,268.8287,91.2514,-0.00023741,-2.924e-05,0.0,0 STARLINK-5889,1 55953U 23037AR  24119.50673515 -.00002924  00000-0 -23741-3 0  9990,2 55953  70.0006 179.6334 0003125 268.8287  91.2514 14.98317965 62921,6950.23,96.108,574.267,569.923,0.0
55953.0,STARLINK-5889,PAYLOAD,2024-04-28 13:45:50,14.98317458,0.0003126,70.0006,179.465,268.8442,91.2358,-0.00023729,-2.922e-05,0.0,0 STARLINK-5889,1 55953U 23037AR  24119.57349592 -.00002922  00000-0 -23729-3 0  9996,2 55953  70.0006 179.4650 0003126 268.8442  91.2358 14.98317458 62590,6950.232,96.108,574.269,569.924,0.0
